{"type":"FeatureCollection","features":[{"geometry":{"type":"Point","coordinates":[-81.53806371310208,30.626313489327313]},"id":1,"type":"Feature","properties":{"conditionnotes":"fe","comments":"ee","nameofrecorder":"gc","dbh":12,"rootspace":"fe","conflictwithutilities":"None","treeid":1,"maintenancenotes":"fe","condition":"Good","commonname":"Cabbage Palm","crownwidth":14,"dateofrecording":1643068800000,"numberstems":1,"location":"fe","dateofmaintenance":null,"objectid":1,"height":14}},{"geometry":{"type":"Point","coordinates":[-81.53777083878373,30.62617365996264]},"id":2,"type":"Feature","properties":{"conditionnotes":null,"comments":null,"nameofrecorder":null,"dbh":null,"rootspace":null,"conflictwithutilities":null,"treeid":2,"maintenancenotes":null,"condition":"Fair","commonname":"Crab Apple","crownwidth":null,"dateofrecording":null,"numberstems":null,"location":null,"dateofmaintenance":null,"objectid":2,"height":null}},{"geometry":{"type":"Point","coordinates":[-81.5374779510126,30.626251706414873]},"id":3,"type":"Feature","properties":{"conditionnotes":null,"comments":null,"nameofrecorder":null,"dbh":null,"rootspace":null,"conflictwithutilities":null,"treeid":null,"maintenancenotes":null,"condition":null,"commonname":"Crape Myrtle","crownwidth":null,"dateofrecording":null,"numberstems":null,"location":null,"dateofmaintenance":null,"objectid":3,"height":null}},{"geometry":{"type":"Point","coordinates":[-81.53672431073872,30.626239788127986]},"id":4,"type":"Feature","properties":{"conditionnotes":null,"comments":null,"nameofrecorder":null,"dbh":null,"rootspace":null,"conflictwithutilities":null,"treeid":3,"maintenancenotes":null,"condition":"Fair","commonname":null,"crownwidth":null,"dateofrecording":null,"numberstems":null,"location":null,"dateofmaintenance":null,"objectid":4,"height":null}},{"geometry":{"type":"Point","coordinates":[-81.53674880516293,30.626161546124383]},"id":5,"type":"Feature","properties":{"conditionnotes":null,"comments":null,"nameofrecorder":null,"dbh":null,"rootspace":null,"conflictwithutilities":null,"treeid":5,"maintenancenotes":null,"condition":"Fair","commonname":null,"crownwidth":null,"dateofrecording":null,"numberstems":null,"location":null,"dateofmaintenance":null,"objectid":5,"height":null}},{"geometry":{"type":"Point","coordinates":[-81.5367787589737,30.626084629243273]},"id":6,"type":"Feature","properties":{"conditionnotes":null,"comments":null,"nameofrecorder":null,"dbh":null,"rootspace":null,"conflictwithutilities":null,"treeid":6,"maintenancenotes":null,"condition":"Fair","commonname":null,"crownwidth":null,"dateofrecording":null,"numberstems":null,"location":null,"dateofmaintenance":null,"objectid":6,"height":null}},{"geometry":{"type":"Point","coordinates":[-81.5375882385903,30.626117483893594]},"id":7,"type":"Feature","properties":{"conditionnotes":null,"comments":null,"nameofrecorder":"GC","dbh":30,"rootspace":"Open","conflictwithutilities":"None","treeid":55,"maintenancenotes":null,"condition":"Good","commonname":"Crape Myrtle","crownwidth":20,"dateofrecording":1643144743000,"numberstems":5,"location":"James page building ","dateofmaintenance":null,"objectid":7,"height":25}},{"geometry":{"type":"Point","coordinates":[-81.53684893566627,30.6258427753087]},"id":8,"type":"Feature","properties":{"conditionnotes":null,"comments":null,"nameofrecorder":"GC","dbh":8,"rootspace":"Open","conflictwithutilities":"No","treeid":7,"maintenancenotes":null,"condition":"Fair","commonname":"Crab Apple","crownwidth":15,"dateofrecording":1643144920000,"numberstems":1,"location":"James Page Building ","dateofmaintenance":null,"objectid":8,"height":20}},{"geometry":{"type":"Point","coordinates":[-81.53679259619709,30.626014493733212]},"id":9,"type":"Feature","properties":{"conditionnotes":null,"comments":null,"nameofrecorder":"GC","dbh":9,"rootspace":null,"conflictwithutilities":"No","treeid":8,"maintenancenotes":null,"condition":"Fair","commonname":"Crab Apple","crownwidth":15,"dateofrecording":1643145196000,"numberstems":1,"location":null,"dateofmaintenance":null,"objectid":9,"height":15}},{"geometry":{"type":"Point","coordinates":[-81.53819620780148,30.625171327564907]},"id":10,"type":"Feature","properties":{"conditionnotes":null,"comments":null,"nameofrecorder":"GC","dbh":10,"rootspace":"Island","conflictwithutilities":"None","treeid":9,"maintenancenotes":null,"condition":"Good","commonname":"Savannah Holly","crownwidth":15,"dateofrecording":1643145467000,"numberstems":1,"location":null,"dateofmaintenance":null,"objectid":10,"height":15}},{"geometry":{"type":"Point","coordinates":[-81.53822484079343,30.625099516002454]},"id":11,"type":"Feature","properties":{"conditionnotes":null,"comments":null,"nameofrecorder":"GC","dbh":12,"rootspace":"Island","conflictwithutilities":"None","treeid":10,"maintenancenotes":null,"condition":"Good","commonname":"Dahoon Holly","crownwidth":20,"dateofrecording":1643145679000,"numberstems":1,"location":"James Page Building","dateofmaintenance":null,"objectid":11,"height":20}},{"geometry":{"type":"Point","coordinates":[-81.53837207254689,30.625137611714745]},"id":12,"type":"Feature","properties":{"conditionnotes":null,"comments":null,"nameofrecorder":"GC","dbh":20,"rootspace":"Island","conflictwithutilities":"No","treeid":11,"maintenancenotes":null,"condition":"Good","commonname":"Oleander","crownwidth":25,"dateofrecording":1643145859000,"numberstems":15,"location":null,"dateofmaintenance":null,"objectid":12,"height":15}},{"geometry":{"type":"Point","coordinates":[-81.5370342256818,30.62530325237447]},"id":13,"type":"Feature","properties":{"conditionnotes":null,"comments":null,"nameofrecorder":null,"dbh":null,"rootspace":null,"conflictwithutilities":null,"treeid":null,"maintenancenotes":null,"condition":"Fair","commonname":"Sweetbay Magnolia","crownwidth":null,"dateofrecording":null,"numberstems":null,"location":null,"dateofmaintenance":null,"objectid":13,"height":null}},{"geometry":{"type":"Point","coordinates":[-81.53766172506928,30.625277113447655]},"id":14,"type":"Feature","properties":{"conditionnotes":null,"comments":null,"nameofrecorder":null,"dbh":null,"rootspace":null,"conflictwithutilities":null,"treeid":null,"maintenancenotes":null,"condition":"Good","commonname":null,"crownwidth":null,"dateofrecording":null,"numberstems":null,"location":null,"dateofmaintenance":null,"objectid":14,"height":null}},{"geometry":{"type":"Point","coordinates":[-81.53651702248307,30.626522243365443]},"id":15,"type":"Feature","properties":{"conditionnotes":null,"comments":null,"nameofrecorder":null,"dbh":null,"rootspace":null,"conflictwithutilities":null,"treeid":null,"maintenancenotes":null,"condition":"Dead","commonname":null,"crownwidth":null,"dateofrecording":null,"numberstems":null,"location":null,"dateofmaintenance":null,"objectid":15,"height":null}},{"geometry":{"type":"Point","coordinates":[-81.53831284819755,30.625367047721607]},"id":18,"type":"Feature","properties":{"conditionnotes":null,"comments":"Century Plant- Agrave americana ","nameofrecorder":null,"dbh":null,"rootspace":null,"conflictwithutilities":null,"treeid":null,"maintenancenotes":null,"condition":"Good","commonname":null,"crownwidth":null,"dateofrecording":null,"numberstems":null,"location":null,"dateofmaintenance":null,"objectid":18,"height":null}},{"geometry":{"type":"Point","coordinates":[-81.53811117105522,30.62536731948461]},"id":19,"type":"Feature","properties":{"conditionnotes":null,"comments":null,"nameofrecorder":null,"dbh":null,"rootspace":null,"conflictwithutilities":null,"treeid":null,"maintenancenotes":null,"condition":"Good","commonname":"Crape Myrtle","crownwidth":null,"dateofrecording":null,"numberstems":null,"location":null,"dateofmaintenance":null,"objectid":19,"height":null}},{"geometry":{"type":"Point","coordinates":[-81.53818561243266,30.62543052743233]},"id":20,"type":"Feature","properties":{"conditionnotes":"Llex x attenuata ","comments":null,"nameofrecorder":null,"dbh":null,"rootspace":null,"conflictwithutilities":null,"treeid":null,"maintenancenotes":null,"condition":"Good","commonname":"East Palatka Holly","crownwidth":null,"dateofrecording":null,"numberstems":null,"location":null,"dateofmaintenance":null,"objectid":20,"height":null}},{"geometry":{"type":"Point","coordinates":[-81.53821904381327,30.625500507162847]},"id":21,"type":"Feature","properties":{"conditionnotes":"Viburnum- viburnum odoraticsmum","comments":null,"nameofrecorder":null,"dbh":null,"rootspace":null,"conflictwithutilities":null,"treeid":null,"maintenancenotes":null,"condition":"Good","commonname":null,"crownwidth":null,"dateofrecording":null,"numberstems":null,"location":null,"dateofmaintenance":null,"objectid":21,"height":null}},{"geometry":{"type":"Point","coordinates":[-81.43563896829592,30.655569945980883]},"id":16,"type":"Feature","properties":{"conditionnotes":null,"comments":null,"nameofrecorder":null,"dbh":5,"rootspace":"20","conflictwithutilities":"No","treeid":null,"maintenancenotes":null,"condition":"Dead","commonname":"Boxelder","crownwidth":20,"dateofrecording":1672981200000,"numberstems":1,"location":null,"dateofmaintenance":null,"objectid":16,"height":3}},{"geometry":{"type":"Point","coordinates":[-81.53761279609796,30.62649442806394]},"id":17,"type":"Feature","properties":{"conditionnotes":null,"comments":null,"nameofrecorder":null,"dbh":null,"rootspace":null,"conflictwithutilities":null,"treeid":null,"maintenancenotes":null,"condition":"Dead","commonname":null,"crownwidth":null,"dateofrecording":null,"numberstems":null,"location":null,"dateofmaintenance":null,"objectid":17,"height":null}}]}