{
  "type": "FeatureCollection",
  "features": [
    {
      "geometry": {
        "type": "Point",
        "coordinates": [
          -81.45016225599994,
          30.668210400000078
        ],
        "crs": null
      },
      "id": 1,
      "type": "Feature",
      "properties": {
        "live_crown_ratio___lcr___": 75,
        "last_inspection": 44844,
        "tree_id": 1,
        "city": "Fernandina Beach",
        "assessed_tree_part": "Whole Tree",
        "number_of_stems__multi_calc_": "1",
        "canopy_shape": "Asymmetrical",
        "latitude": 30.6682104,
        "height_range": "50ft-75ft",
        "likelihood_of_impacting_target": "Medium",
        "likelihood_outcome": "Unlikely",
        "tree_work_phc": "",
        "risk_rating": "Low",
        "tree_work_pruning": "Clearance Prune, Crown Clean, Deadwood, Reduce end weight",
        "common_name": "Live oak",
        "observations_characteristics": "Co-dominant Limbs, Deadwood, Included Bark, Over pruned, Vine growth",
        "longitude": -81.45016226,
        "observations_biotic_pest": "Spanish Moss",
        "likelihood_of_failure": "Possible",
        "address": "105 South 15th Street",
        "observation_comments": "Tree has been over pruned due to proximity to adjacent utility lines. Tree has slight lean back towards residence.",
        "observations_abiotic": " ",
        "heritage_tree_significance_note": "Tree meets DBH criteria. Tree certainly plays a significant role in the landscape. Would not recommend for Heritage Tree Program due to utility pruning.",
        "consequence_of_failure": "Significant",
        "scientific_name": "Quercus virginiana",
        "monitor": "No",
        "dbh": 44,
        "priority": "Low",
        "land_use": "Single Family",
        "dbh_range": ">30in",
        "tree_maintenance_cycle": "3yr Cycle",
        "location_on_site": "East",
        "condition": "Good",
        "land_type": "Yard",
        "crown_spread": 85,
        "next_inspection": 45940,
        "tree_height__estimated_": 65,
        "objectid": 1,
        "status": "Alive",
        "heritage_tree_nomination": "No"
      }
    },
    {
      "geometry": {
        "type": "Point",
        "coordinates": [
          -81.44993523899996,
          30.66791952500006
        ],
        "crs": null
      },
      "id": 2,
      "type": "Feature",
      "properties": {
        "live_crown_ratio___lcr___": 65,
        "last_inspection": 44844,
        "tree_id": 2,
        "city": "Fernandina Beach",
        "assessed_tree_part": "Whole Tree",
        "number_of_stems__multi_calc_": "1",
        "canopy_shape": "Asymmetrical",
        "latitude": 30.66791952,
        "height_range": "50ft-75ft",
        "likelihood_of_impacting_target": "Medium",
        "likelihood_outcome": "Unlikely",
        "tree_work_phc": "Nutrient/Fertilize",
        "risk_rating": "Low",
        "tree_work_pruning": "Crown Clean, Deadwood, Reduce end weight",
        "common_name": "Live oak",
        "observations_characteristics": "Cavity, Co-dominant Limbs, Deadwood, Included Bark",
        "longitude": -81.44993524,
        "observations_biotic_pest": "Spanish Moss",
        "likelihood_of_failure": "Possible",
        "address": "110 South 15th Street",
        "observation_comments": "Tree has unbalanced canopy due to adjacent utilities. Structure of tree is not adequate. Some minor basal cavities present. Foliage appears chlorotic ",
        "observations_abiotic": "Nutrient Deficiency",
        "heritage_tree_significance_note": "Does not meet DBH criteria. Not adequate structure. ",
        "consequence_of_failure": "Significant",
        "scientific_name": "Quercus virginiana",
        "monitor": "No",
        "dbh": 34,
        "priority": "Low",
        "land_use": "Single Family",
        "dbh_range": ">30in",
        "tree_maintenance_cycle": "3yr Cycle",
        "location_on_site": "West",
        "condition": "Fair",
        "land_type": "Yard",
        "crown_spread": 55,
        "next_inspection": 45940,
        "tree_height__estimated_": 60,
        "objectid": 2,
        "status": "Alive",
        "heritage_tree_nomination": "No"
      }
    },
    {
      "geometry": {
        "type": "Point",
        "coordinates": [
          -81.45001302299994,
          30.667580385000065
        ],
        "crs": null
      },
      "id": 3,
      "type": "Feature",
      "properties": {
        "live_crown_ratio___lcr___": 75,
        "last_inspection": 44844,
        "tree_id": 3,
        "city": "Fernandina Beach",
        "assessed_tree_part": "Whole Tree",
        "number_of_stems__multi_calc_": "1",
        "canopy_shape": "Symmetrical",
        "latitude": 30.66758039,
        "height_range": "50ft-75ft",
        "likelihood_of_impacting_target": "Low",
        "likelihood_outcome": "Unlikely",
        "tree_work_phc": "",
        "risk_rating": "Low",
        "tree_work_pruning": "Crown Clean, Deadwood, Reduce end weight",
        "common_name": "Live oak",
        "observations_characteristics": "Cavity, Co-dominant Limbs, Deadwood, Included Bark",
        "longitude": -81.45001302,
        "observations_biotic_pest": "Spanish Moss",
        "likelihood_of_failure": "Possible",
        "address": "118 South 15th Street",
        "observation_comments": "Narrow branching angle of co dominant trunks. Cavity present at trunk union. ",
        "observations_abiotic": " ",
        "heritage_tree_significance_note": "Tree meets DBH criteria. Tree certainly plays a significant role in the landscape. Would not recommend for Heritage Tree Program due to structure",
        "consequence_of_failure": "Significant",
        "scientific_name": "Quercus virginiana",
        "monitor": "No",
        "dbh": 44.5,
        "priority": "Low",
        "land_use": "Single Family",
        "dbh_range": ">30in",
        "tree_maintenance_cycle": "3yr Cycle",
        "location_on_site": "West",
        "condition": "Good",
        "land_type": "Yard",
        "crown_spread": 75,
        "next_inspection": 45940,
        "tree_height__estimated_": 65,
        "objectid": 3,
        "status": "Alive",
        "heritage_tree_nomination": "No"
      }
    },
    {
      "geometry": {
        "type": "Point",
        "coordinates": [
          -81.45082804399993,
          30.663556667000023
        ],
        "crs": null
      },
      "id": 4,
      "type": "Feature",
      "properties": {
        "live_crown_ratio___lcr___": 85,
        "last_inspection": 44844,
        "tree_id": 4,
        "city": "Fernandina Beach",
        "assessed_tree_part": "Whole Tree",
        "number_of_stems__multi_calc_": "1",
        "canopy_shape": "Symmetrical",
        "latitude": 30.66355667,
        "height_range": "50ft-75ft",
        "likelihood_of_impacting_target": "Medium",
        "likelihood_outcome": "Unlikely",
        "tree_work_phc": "",
        "risk_rating": "Low",
        "tree_work_pruning": "Clearance Prune, Crown Clean, Deadwood, Reduce end weight",
        "common_name": "Live oak",
        "observations_characteristics": "Co-dominant Limbs, Deadwood, Epicormic shoots, Included Bark, Over pruned",
        "longitude": -81.45082804,
        "observations_biotic_pest": "Bacteria",
        "likelihood_of_failure": "Possible",
        "address": "409 South 15th Street",
        "observation_comments": "Narrowing branching angles of main co dominant limbs with areas of included bark. Minor basal cavity with response growth. Bacterial wet wood present at areas of included bark. Tree has been severely pruned due to adjacent utilities",
        "observations_abiotic": " ",
        "heritage_tree_significance_note": "Tree meets DBH criteria. Tree plays a significant role in the landscape. Tree has poor structure. Would not recommend for Heritage Tree Program due to utility pruning.",
        "consequence_of_failure": "Significant",
        "scientific_name": "Quercus virginiana",
        "monitor": "No",
        "dbh": 46,
        "priority": "Low",
        "land_use": "Single Family",
        "dbh_range": ">30in",
        "tree_maintenance_cycle": "3yr Cycle",
        "location_on_site": "East",
        "condition": "Good",
        "land_type": "Yard",
        "crown_spread": 75,
        "next_inspection": 45939,
        "tree_height__estimated_": 65,
        "objectid": 4,
        "status": "Alive",
        "heritage_tree_nomination": "No"
      }
    },
    {
      "geometry": {
        "type": "Point",
        "coordinates": [
          -81.45082820399995,
          30.663662199000044
        ],
        "crs": null
      },
      "id": 5,
      "type": "Feature",
      "properties": {
        "live_crown_ratio___lcr___": 75,
        "last_inspection": 44844,
        "tree_id": 5,
        "city": "Fernandina Beach",
        "assessed_tree_part": "Whole Tree",
        "number_of_stems__multi_calc_": "1",
        "canopy_shape": "Symmetrical",
        "latitude": 30.6636622,
        "height_range": "50ft-75ft",
        "likelihood_of_impacting_target": "Medium",
        "likelihood_outcome": "Unlikely",
        "tree_work_phc": "",
        "risk_rating": "Low",
        "tree_work_pruning": "Clearance Prune, Crown Clean, Deadwood, Reduce end weight",
        "common_name": "Live oak",
        "observations_characteristics": "Co-dominant Limbs, Deadwood, Epicormic shoots, Included Bark, Over pruned",
        "longitude": -81.4508282,
        "observations_biotic_pest": "",
        "likelihood_of_failure": "Possible",
        "address": "409 South 15th Street",
        "observation_comments": "Multiple co dominant limbs with area of included bark. Tree has been over pruned due to adjacent utility lines",
        "observations_abiotic": " ",
        "heritage_tree_significance_note": "Tree meets DBH criteria. Tree plays a significant role in the landscape. Tree has poor structure. Would not recommend for Heritage Tree Program due utility pruning",
        "consequence_of_failure": "Significant",
        "scientific_name": "Quercus virginiana",
        "monitor": "No",
        "dbh": 36,
        "priority": "Low",
        "land_use": "Single Family",
        "dbh_range": ">30in",
        "tree_maintenance_cycle": "3yr Cycle",
        "location_on_site": "East",
        "condition": "Good",
        "land_type": "Yard",
        "crown_spread": 65,
        "next_inspection": 45940,
        "tree_height__estimated_": 65,
        "objectid": 5,
        "status": "Alive",
        "heritage_tree_nomination": "No"
      }
    },
    {
      "geometry": {
        "type": "Point",
        "coordinates": [
          -81.45119990799998,
          30.66115732800006
        ],
        "crs": null
      },
      "id": 6,
      "type": "Feature",
      "properties": {
        "live_crown_ratio___lcr___": 90,
        "last_inspection": 44844,
        "tree_id": 6,
        "city": "Fernandina Beach",
        "assessed_tree_part": "Whole Tree",
        "number_of_stems__multi_calc_": "1",
        "canopy_shape": "Symmetrical",
        "latitude": 30.66115733,
        "height_range": "15ft-30ft",
        "likelihood_of_impacting_target": "Low",
        "likelihood_outcome": "Unlikely",
        "tree_work_phc": "",
        "risk_rating": "Low",
        "tree_work_pruning": "Clearance Prune, Reduce end weight",
        "common_name": "Eastern red cedar",
        "observations_characteristics": "Broken Limb, Co-dominant Limbs, Included Bark, Over pruned",
        "longitude": -81.45119991,
        "observations_biotic_pest": "",
        "likelihood_of_failure": "Possible",
        "address": "625 South 15th Street",
        "observation_comments": "Tree has been over pruned due to adjacent utilities. Many co dominant limbs with areas of included bark",
        "observations_abiotic": " ",
        "heritage_tree_significance_note": "Tree meet DBH criteria. Overall good health. Plays a significant role in the landscape. Structure is not adequate . Would not recommend for Heritage Tree Program due to utility pruning",
        "consequence_of_failure": "Minor",
        "scientific_name": "Juniperus virginiana",
        "monitor": "No",
        "dbh": 40,
        "priority": "Low",
        "land_use": "Single Family",
        "dbh_range": ">30in",
        "tree_maintenance_cycle": "3yr Cycle",
        "location_on_site": "East",
        "condition": "Good",
        "land_type": "Yard",
        "crown_spread": 55,
        "next_inspection": 45940,
        "tree_height__estimated_": 25,
        "objectid": 6,
        "status": "Alive",
        "heritage_tree_nomination": "No"
      }
    },
    {
      "geometry": {
        "type": "Point",
        "coordinates": [
          -81.44885203699994,
          30.60604922400006
        ],
        "crs": null
      },
      "id": 7,
      "type": "Feature",
      "properties": {
        "live_crown_ratio___lcr___": 75,
        "last_inspection": 44844,
        "tree_id": 7,
        "city": "Fernandina Beach",
        "assessed_tree_part": "Whole Tree",
        "number_of_stems__multi_calc_": "1",
        "canopy_shape": "Symmetrical",
        "latitude": 30.60604922,
        "height_range": "50ft-75ft",
        "likelihood_of_impacting_target": "Low",
        "likelihood_outcome": "Unlikely",
        "tree_work_phc": "",
        "risk_rating": "Low",
        "tree_work_pruning": "Crown Clean, Deadwood, Reduce end weight",
        "common_name": "Live oak",
        "observations_characteristics": "Cavity, Co-dominant Limbs, Deadwood, Included Bark",
        "longitude": -81.44885204,
        "observations_biotic_pest": "Bacteria, Spanish Moss",
        "likelihood_of_failure": "Possible",
        "address": "2428 Los Robles South",
        "observation_comments": "Basal cavity with decay and limited response growth. Bacterial gall present. ",
        "observations_abiotic": " ",
        "heritage_tree_significance_note": "Tree meet DBH criteria. Tree plays a significant role in the landscape.",
        "consequence_of_failure": "Severe",
        "scientific_name": "Quercus virginiana",
        "monitor": "Yes",
        "dbh": 39,
        "priority": "Low",
        "land_use": "Single Family",
        "dbh_range": ">30in",
        "tree_maintenance_cycle": "3yr Cycle",
        "location_on_site": "East",
        "condition": "Good",
        "land_type": "Yard",
        "crown_spread": 60,
        "next_inspection": 45940,
        "tree_height__estimated_": 70,
        "objectid": 7,
        "status": "Alive",
        "heritage_tree_nomination": "Yes, Already a Heritage Tree"
      }
    },
    {
      "geometry": {
        "type": "Point",
        "coordinates": [
          -81.44866964699997,
          30.605906094000034
        ],
        "crs": null
      },
      "id": 8,
      "type": "Feature",
      "properties": {
        "live_crown_ratio___lcr___": 65,
        "last_inspection": 44844,
        "tree_id": 8,
        "city": "Fernandina Beach",
        "assessed_tree_part": "Whole Tree",
        "number_of_stems__multi_calc_": "1",
        "canopy_shape": "Symmetrical",
        "latitude": 30.60590609,
        "height_range": "50ft-75ft",
        "likelihood_of_impacting_target": "Medium",
        "likelihood_outcome": "Unlikely",
        "tree_work_phc": "",
        "risk_rating": "Low",
        "tree_work_pruning": "Crown Clean, Deadwood, Reduce end weight",
        "common_name": "Live oak",
        "observations_characteristics": "Cavity, Co-dominant Limbs, Deadwood, Included Bark",
        "longitude": -81.44866965,
        "observations_biotic_pest": "Spanish Moss",
        "likelihood_of_failure": "Possible",
        "address": "2428 Los Robles South",
        "observation_comments": "Cavities with limited response growth and decay. Co dominant stems with area of included bark and a cavity. Basal cavity with adequate response growth. Narrow branching angle on co dominant stems",
        "observations_abiotic": " ",
        "heritage_tree_significance_note": "Tree meets DBH criteria. Defects on tree that would not warrant nomination. Does play a significant role in the landscape. Would not recommend for Heritage Tree Program due to defects",
        "consequence_of_failure": "Significant",
        "scientific_name": "Quercus virginiana",
        "monitor": "Yes",
        "dbh": 42,
        "priority": "Low",
        "land_use": "Single Family",
        "dbh_range": ">30in",
        "tree_maintenance_cycle": "3yr Cycle",
        "location_on_site": "SE",
        "condition": "Fair",
        "land_type": "Yard",
        "crown_spread": 60,
        "next_inspection": 45940,
        "tree_height__estimated_": 70,
        "objectid": 8,
        "status": "Alive",
        "heritage_tree_nomination": "No"
      }
    },
    {
      "geometry": {
        "type": "Point",
        "coordinates": [
          -81.45208901999996,
          30.662503207000043
        ],
        "crs": null
      },
      "id": 9,
      "type": "Feature",
      "properties": {
        "live_crown_ratio___lcr___": 75,
        "last_inspection": 44845,
        "tree_id": 9,
        "city": "Fernandina Beach",
        "assessed_tree_part": "Whole Tree",
        "number_of_stems__multi_calc_": "1",
        "canopy_shape": "Symmetrical",
        "latitude": 30.66250321,
        "height_range": "50ft-75ft",
        "likelihood_of_impacting_target": "Medium",
        "likelihood_outcome": "Unlikely",
        "tree_work_phc": "",
        "risk_rating": "Low",
        "tree_work_pruning": "Crown Clean, Deadwood, Reduce end weight",
        "common_name": "Laurel oak",
        "observations_characteristics": "Deadwood, Gall, Included Bark, Poor Taper",
        "longitude": -81.45208902,
        "observations_biotic_pest": "Bacteria, Mistletoe",
        "likelihood_of_failure": "Possible",
        "address": "1407 Fir Street",
        "observation_comments": "Private Tree in backyard behind fence. Over extended branches. Poor taper on several main stems and lateral branches. Narrow branching angles on several main stems.",
        "observations_abiotic": " ",
        "heritage_tree_significance_note": "Meets DBH criteria. Is a significant tree in the landscape.  Would not recommendm for Heritage Tree Program due to structural issues.",
        "consequence_of_failure": "Significant",
        "scientific_name": "Quercus laurifolia",
        "monitor": "No",
        "dbh": 59,
        "priority": "Low",
        "land_use": "Single Family",
        "dbh_range": ">30in",
        "tree_maintenance_cycle": "3yr Cycle",
        "location_on_site": "South",
        "condition": "Good",
        "land_type": "Yard",
        "crown_spread": 75,
        "next_inspection": 45941,
        "tree_height__estimated_": 70,
        "objectid": 9,
        "status": "Alive",
        "heritage_tree_nomination": "No"
      }
    },
    {
      "geometry": {
        "type": "Point",
        "coordinates": [
          -81.44746574799996,
          30.656557957000075
        ],
        "crs": null
      },
      "id": 10,
      "type": "Feature",
      "properties": {
        "live_crown_ratio___lcr___": 65,
        "last_inspection": 44845,
        "tree_id": 10,
        "city": "Fernandina Beach",
        "assessed_tree_part": "Whole Tree",
        "number_of_stems__multi_calc_": "1",
        "canopy_shape": "Asymmetrical",
        "latitude": 30.65655796,
        "height_range": "30ft-50ft",
        "likelihood_of_impacting_target": "Low",
        "likelihood_outcome": "Unlikely",
        "tree_work_phc": "",
        "risk_rating": "Low",
        "tree_work_pruning": "Crown Clean, Deadwood, Reduce end weight",
        "common_name": "Laurel oak",
        "observations_characteristics": "Co-dominant Limbs, Deadwood, Epicormic shoots, Included Bark, Leaning trunk, Poor Taper",
        "longitude": -81.44746575,
        "observations_biotic_pest": "Spanish Moss",
        "likelihood_of_failure": "Possible",
        "address": "1002 Natures Walk Drive",
        "observation_comments": "Asymmetrical canopy a f leaning trunk. Co dominant limbs with area of included bark. Over extended lateral limbs with poor taper and excess weight",
        "observations_abiotic": " ",
        "heritage_tree_significance_note": "Does not meet DBH criteria. Would not recommend for Heritage Tree Program.",
        "consequence_of_failure": "Significant",
        "scientific_name": "Quercus laurifolia",
        "monitor": "No",
        "dbh": 23,
        "priority": "Low",
        "land_use": "Single Family",
        "dbh_range": "18-24in",
        "tree_maintenance_cycle": "3yr Cycle",
        "location_on_site": "NW",
        "condition": "Fair",
        "land_type": "Street",
        "crown_spread": 35,
        "next_inspection": 45941,
        "tree_height__estimated_": 45,
        "objectid": 10,
        "status": "Alive",
        "heritage_tree_nomination": "No"
      }
    },
    {
      "geometry": {
        "type": "Point",
        "coordinates": [
          -81.44938563199997,
          30.65709643200006
        ],
        "crs": null
      },
      "id": 11,
      "type": "Feature",
      "properties": {
        "live_crown_ratio___lcr___": 40,
        "last_inspection": 44845,
        "tree_id": 11,
        "city": "Fernandina Beach",
        "assessed_tree_part": "Whole Tree",
        "number_of_stems__multi_calc_": "Multiple Stems",
        "canopy_shape": "Symmetrical",
        "latitude": 30.65709643,
        "height_range": "30ft-50ft",
        "likelihood_of_impacting_target": "Low",
        "likelihood_outcome": "Unlikely",
        "tree_work_phc": "Nutrient/Fertilize",
        "risk_rating": "Low",
        "tree_work_pruning": "Crown Clean, Deadwood",
        "common_name": "Live oak",
        "observations_characteristics": "Co-dominant tree, Crack, Deadwood, Included Bark, Thin / Sparse Foliage",
        "longitude": -81.44938563,
        "observations_biotic_pest": "Mistletoe, Spanish Moss",
        "likelihood_of_failure": "Possible",
        "address": "920 South 17th Street",
        "observation_comments": "Lots of canopy die back more than likely from issues stemming from roots",
        "observations_abiotic": " ",
        "heritage_tree_significance_note": "Meets DBH criteria. Overall health is poor. Would not recommend this tree for Heritage Tree Program.",
        "consequence_of_failure": "Significant",
        "scientific_name": "Quercus virginiana",
        "monitor": "Yes",
        "dbh": 43.53,
        "priority": "Low",
        "land_use": "Single Family",
        "dbh_range": ">30in",
        "tree_maintenance_cycle": "3yr Cycle",
        "location_on_site": "West",
        "condition": "Poor",
        "land_type": "Yard",
        "crown_spread": 75,
        "next_inspection": 45941,
        "tree_height__estimated_": 45,
        "objectid": 11,
        "status": "Alive",
        "heritage_tree_nomination": "No"
      }
    },
    {
      "geometry": {
        "type": "Point",
        "coordinates": [
          -81.45448804399996,
          30.667279938000036
        ],
        "crs": null
      },
      "id": 12,
      "type": "Feature",
      "properties": {
        "live_crown_ratio___lcr___": 70,
        "last_inspection": 44845,
        "tree_id": 13,
        "city": "Fernandina Beach",
        "assessed_tree_part": "Whole Tree",
        "number_of_stems__multi_calc_": "Multiple Stems",
        "canopy_shape": "Asymmetrical",
        "latitude": 30.66727994,
        "height_range": "75ft-100ft",
        "likelihood_of_impacting_target": "Very Low",
        "likelihood_outcome": "Unlikely",
        "tree_work_phc": "",
        "risk_rating": "Low",
        "tree_work_pruning": "Crown Clean, Deadwood, Reduce end weight",
        "common_name": "Live oak",
        "observations_characteristics": "Co-dominant tree, Deadwood, Included Bark, Poor Taper, Vine growth",
        "longitude": -81.45448804,
        "observations_biotic_pest": "",
        "likelihood_of_failure": "Possible",
        "address": "219 Vernon St",
        "observation_comments": "Tree has had a previous co dominant trunk failure but has healed this defect",
        "observations_abiotic": " ",
        "heritage_tree_significance_note": "Tree meets DBH criteria. Tree does play a significant role in landscape. Tree sits in middle of undeveloped lot. Would not recommend due to strucutral issues with co dominant stems.",
        "consequence_of_failure": "Significant",
        "scientific_name": "Quercus virginiana",
        "monitor": "No",
        "dbh": 52.43,
        "priority": "Low",
        "land_use": "Park/ Vacant/ Other",
        "dbh_range": ">30in",
        "tree_maintenance_cycle": "3yr Cycle",
        "location_on_site": "North",
        "condition": "Good",
        "land_type": "Empty Lot",
        "crown_spread": 75,
        "next_inspection": 45941,
        "tree_height__estimated_": 75,
        "objectid": 12,
        "status": "Alive",
        "heritage_tree_nomination": "No"
      }
    },
    {
      "geometry": {
        "type": "Point",
        "coordinates": [
          -81.44893840599997,
          30.66479030100004
        ],
        "crs": null
      },
      "id": 13,
      "type": "Feature",
      "properties": {
        "live_crown_ratio___lcr___": 75,
        "last_inspection": 44845,
        "tree_id": 14,
        "city": "Fernandina Beach",
        "assessed_tree_part": "Whole Tree",
        "number_of_stems__multi_calc_": "Multiple Stems",
        "canopy_shape": "Symmetrical",
        "latitude": 30.6647903,
        "height_range": "50ft-75ft",
        "likelihood_of_impacting_target": "Medium",
        "likelihood_outcome": "Unlikely",
        "tree_work_phc": "",
        "risk_rating": "Low",
        "tree_work_pruning": "Crown Clean, Deadwood, Reduce end weight",
        "common_name": "Live oak",
        "observations_characteristics": "Co-dominant tree, Deadwood, Over pruned, Poor Taper",
        "longitude": -81.44893841,
        "observations_biotic_pest": "",
        "likelihood_of_failure": "Possible",
        "address": "308 South 16th Street (1614 Date St)",
        "observation_comments": "Private Tree. Overall tree in good health. Tree has multiple old pruning marks that have response growth around but have not completely healed over. ",
        "observations_abiotic": " ",
        "heritage_tree_significance_note": "Tree meets DBH criteria. Tree plays a significant role in the landscape. Spoke with homeowner about Heritage Tree Program and handed out information packet.  Would not recommend due to co dominant trunks.",
        "consequence_of_failure": "Significant",
        "scientific_name": "Quercus virginiana",
        "monitor": "No",
        "dbh": 47.01,
        "priority": "Low",
        "land_use": "Single Family",
        "dbh_range": ">30in",
        "tree_maintenance_cycle": "3yr Cycle",
        "location_on_site": "SE",
        "condition": "Good",
        "land_type": "Yard",
        "crown_spread": 85,
        "next_inspection": 45941,
        "tree_height__estimated_": 65,
        "objectid": 13,
        "status": "Alive",
        "heritage_tree_nomination": "No"
      }
    },
    {
      "geometry": {
        "type": "Point",
        "coordinates": [
          -81.44269219099994,
          30.672498415000064
        ],
        "crs": null
      },
      "id": 14,
      "type": "Feature",
      "properties": {
        "live_crown_ratio___lcr___": 60,
        "last_inspection": 44845,
        "tree_id": 15,
        "city": "Fernandina Beach",
        "assessed_tree_part": "Whole Tree",
        "number_of_stems__multi_calc_": "1",
        "canopy_shape": "Symmetrical",
        "latitude": 30.67249841,
        "height_range": "50ft-75ft",
        "likelihood_of_impacting_target": "Low",
        "likelihood_outcome": "Unlikely",
        "tree_work_phc": "",
        "risk_rating": "Low",
        "tree_work_pruning": "Crown Clean, Deadwood, Reduce end weight",
        "common_name": "Live oak",
        "observations_characteristics": "Co-dominant Limbs, Deadwood, Poor Taper, Vine growth",
        "longitude": -81.44269219,
        "observations_biotic_pest": "Spanish Moss",
        "likelihood_of_failure": "Possible",
        "address": "100 O'Hagan Lane",
        "observation_comments": "Several over extended lateral branches with poor taper and excess weight.",
        "observations_abiotic": " ",
        "heritage_tree_significance_note": "Tree meets DBH criteria. Tree plays a significant role in the landscape. Would revist this tree for nomination after some maintenance work has been performed.",
        "consequence_of_failure": "Significant",
        "scientific_name": "Quercus virginiana",
        "monitor": "No",
        "dbh": 36,
        "priority": "Low",
        "land_use": "Single Family",
        "dbh_range": ">30in",
        "tree_maintenance_cycle": "3yr Cycle",
        "location_on_site": "SW",
        "condition": "Good",
        "land_type": "Yard",
        "crown_spread": 75,
        "next_inspection": 45941,
        "tree_height__estimated_": 65,
        "objectid": 14,
        "status": "Alive",
        "heritage_tree_nomination": "No"
      }
    },
    {
      "geometry": {
        "type": "Point",
        "coordinates": [
          -81.46267026199996,
          30.673012175000054
        ],
        "crs": null
      },
      "id": 15,
      "type": "Feature",
      "properties": {
        "live_crown_ratio___lcr___": 85,
        "last_inspection": 44879,
        "tree_id": 16,
        "city": "Fernandina Beach",
        "assessed_tree_part": "Whole Tree",
        "number_of_stems__multi_calc_": "",
        "canopy_shape": "Asymmetrical",
        "latitude": 30.67301218,
        "height_range": "15ft-30ft",
        "likelihood_of_impacting_target": "Low",
        "likelihood_outcome": "Unlikely",
        "tree_work_phc": "",
        "risk_rating": "Low",
        "tree_work_pruning": "Crown Reduce, Reduce end weight",
        "common_name": "Camphor tree",
        "observations_characteristics": "Cavity, Co-dominant Limbs, Included Bark, Invasive",
        "longitude": -81.46267026,
        "observations_biotic_pest": "",
        "likelihood_of_failure": "Possible",
        "address": "114 North 3rd Street",
        "observation_comments": "Tree is invasive, Limited root space causing damage to adjacent curb. Multiple canopy failures through the canopy with cavities.",
        "observations_abiotic": "Nutrient Deficiency",
        "heritage_tree_significance_note": "Meets DBH criteria. Would not recommendm for Heritage Tree Program due to species profile.",
        "consequence_of_failure": "Significant",
        "scientific_name": "Cinnamomum camphora",
        "monitor": "No",
        "dbh": 41,
        "priority": "Low",
        "land_use": "Single Family",
        "dbh_range": ">30in",
        "tree_maintenance_cycle": "3yr Cycle",
        "location_on_site": "SW",
        "condition": "Fair",
        "land_type": "Street",
        "crown_spread": 35,
        "next_inspection": 45974,
        "tree_height__estimated_": 20,
        "objectid": 15,
        "status": "Alive",
        "heritage_tree_nomination": "No"
      }
    },
    {
      "geometry": {
        "type": "Point",
        "coordinates": [
          -81.46163583299995,
          30.67457683300006
        ],
        "crs": null
      },
      "id": 16,
      "type": "Feature",
      "properties": {
        "live_crown_ratio___lcr___": 75,
        "last_inspection": 44879,
        "tree_id": 17,
        "city": "Fernandina Beach",
        "assessed_tree_part": "Whole Tree",
        "number_of_stems__multi_calc_": "1",
        "canopy_shape": "Asymmetrical",
        "latitude": 30.67457683,
        "height_range": "50ft-75ft",
        "likelihood_of_impacting_target": "Medium",
        "likelihood_outcome": "Somewhat Likely",
        "tree_work_phc": "",
        "risk_rating": "Moderate",
        "tree_work_pruning": "Clearance Prune, Crown Clean, Crown Reduce, Reduce end weight",
        "common_name": "Laurel oak",
        "observations_characteristics": "Cavity, Co-dominant Limbs, Gall, Girdling Root, Poor Taper",
        "longitude": -81.46163583,
        "observations_biotic_pest": "",
        "likelihood_of_failure": "Probable",
        "address": "223 North 4th Street",
        "observation_comments": "Limited root space. Causing damage to sidewalk and curb. Tree has been over pruned due to proxy to adjacent utilities. Several branches have poor taper and are over extended.",
        "observations_abiotic": " ",
        "heritage_tree_significance_note": "Meets DBH criteria. Is a significant tree in the landscape.  Tree is not in good health. Would not recommendm for Heritage Tree Program due to health issues and utility pruning",
        "consequence_of_failure": "Significant",
        "scientific_name": "Quercus laurifolia",
        "monitor": "Yes",
        "dbh": 40,
        "priority": "Medium",
        "land_use": "Single Family",
        "dbh_range": ">30in",
        "tree_maintenance_cycle": "3yr Cycle",
        "location_on_site": "East",
        "condition": "Fair",
        "land_type": "Street",
        "crown_spread": 60,
        "next_inspection": 45974,
        "tree_height__estimated_": 55,
        "objectid": 16,
        "status": "Alive",
        "heritage_tree_nomination": "No"
      }
    },
    {
      "geometry": {
        "type": "Point",
        "coordinates": [
          -81.46163337599995,
          30.66831766400003
        ],
        "crs": null
      },
      "id": 17,
      "type": "Feature",
      "properties": {
        "live_crown_ratio___lcr___": 85,
        "last_inspection": 44879,
        "tree_id": 18,
        "city": "Fernandina Beach",
        "assessed_tree_part": "Whole Tree",
        "number_of_stems__multi_calc_": "Multiple Stems",
        "canopy_shape": "Symmetrical",
        "latitude": 30.66831766,
        "height_range": "30ft-50ft",
        "likelihood_of_impacting_target": "Low",
        "likelihood_outcome": "Unlikely",
        "tree_work_phc": "",
        "risk_rating": "Low",
        "tree_work_pruning": "Crown Clean, Reduce end weight",
        "common_name": "Southern magnolia",
        "observations_characteristics": "Cavity, Co-dominant Limbs, Deadwood, Included Bark, Leaning trunk",
        "longitude": -81.46163338,
        "observations_biotic_pest": "",
        "likelihood_of_failure": "Possible",
        "address": "204 S 5th St",
        "observation_comments": "Co dominant trunks that are roughly the same size. ",
        "observations_abiotic": "",
        "heritage_tree_significance_note": "Does not meet DBH standards. Overall good health. Plays a significant role in the landscape. Structure is not adequate. Would not recommend for Heritage Tree Program",
        "consequence_of_failure": "Significant",
        "scientific_name": "Magnolia grandiflora",
        "monitor": "No",
        "dbh": 25.1,
        "priority": "Low",
        "land_use": "Single Family",
        "dbh_range": "24-30in",
        "tree_maintenance_cycle": "3yr Cycle",
        "location_on_site": "West",
        "condition": "Good",
        "land_type": "Yard",
        "crown_spread": 35,
        "next_inspection": 45974,
        "tree_height__estimated_": 30,
        "objectid": 17,
        "status": "Alive",
        "heritage_tree_nomination": "No"
      }
    },
    {
      "geometry": {
        "type": "Point",
        "coordinates": [
          -81.46164487699997,
          30.66808151200007
        ],
        "crs": null
      },
      "id": 18,
      "type": "Feature",
      "properties": {
        "live_crown_ratio___lcr___": 65,
        "last_inspection": 44879,
        "tree_id": 19,
        "city": "Fernandina Beach",
        "assessed_tree_part": "Whole Tree",
        "number_of_stems__multi_calc_": "1",
        "canopy_shape": "Asymmetrical",
        "latitude": 30.66808151,
        "height_range": "50ft-75ft",
        "likelihood_of_impacting_target": "Low",
        "likelihood_outcome": "Unlikely",
        "tree_work_phc": "",
        "risk_rating": "Low",
        "tree_work_pruning": "Clearance Prune, Crown Clean, Deadwood, Reduce end weight",
        "common_name": "Live oak",
        "observations_characteristics": "Deadwood, Poor Taper, Thin / Sparse Foliage",
        "longitude": -81.46164488,
        "observations_biotic_pest": "Mistletoe",
        "likelihood_of_failure": "Possible",
        "address": "212 South 5th Street",
        "observation_comments": "Several clumps of mistletoe present in canopy. Canopy is thin and sparse. Utility pole in close proximity to tree",
        "observations_abiotic": " ",
        "heritage_tree_significance_note": "Tree does not meet DBH criteria. Tree is in good health and does play significant role in the landscape. Mistletoe present in the canopy. Would revisit this tree for potential nomination after maintenance work has been performed.",
        "consequence_of_failure": "Significant",
        "scientific_name": "Quercus virginiana",
        "monitor": "No",
        "dbh": 32,
        "priority": "Low",
        "land_use": "Single Family",
        "dbh_range": ">30in",
        "tree_maintenance_cycle": "3yr Cycle",
        "location_on_site": "West",
        "condition": "Good",
        "land_type": "Yard",
        "crown_spread": 60,
        "next_inspection": 45974,
        "tree_height__estimated_": 55,
        "objectid": 18,
        "status": "Alive",
        "heritage_tree_nomination": "No"
      }
    },
    {
      "geometry": {
        "type": "Point",
        "coordinates": [
          -81.46087422199997,
          30.667628756000056
        ],
        "crs": null
      },
      "id": 19,
      "type": "Feature",
      "properties": {
        "live_crown_ratio___lcr___": 85,
        "last_inspection": 44879,
        "tree_id": 20,
        "city": "Fernandina Beach",
        "assessed_tree_part": "Whole Tree",
        "number_of_stems__multi_calc_": "1",
        "canopy_shape": "Symmetrical",
        "latitude": 30.66762876,
        "height_range": "50ft-75ft",
        "likelihood_of_impacting_target": "Medium",
        "likelihood_outcome": "Somewhat Likely",
        "tree_work_phc": "",
        "risk_rating": "Moderate",
        "tree_work_pruning": "Crown Clean, Deadwood, Reduce end weight",
        "common_name": "Laurel oak",
        "observations_characteristics": "Cavity, Deadwood, Epicormic shoots, Gall, Poor Taper",
        "longitude": -81.46087422,
        "observations_biotic_pest": "Fungus",
        "likelihood_of_failure": "Probable",
        "address": "220 South 6th Street",
        "observation_comments": "Limited root space. Tree causing damage to sidewalk and curb. Multiple cavities present along main trunk and mid portion of canopy. Heartwood decay suspected. Tree is in close proximity to adjacent utilities. Signs of trunk rot disease present with bacteria wet wood",
        "observations_abiotic": " ",
        "heritage_tree_significance_note": "Meets DBH criteria. Is a significant tree in the landscape.  Would not recommendm for Heritage Tree Program due to overall health",
        "consequence_of_failure": "Significant",
        "scientific_name": "Quercus laurifolia",
        "monitor": "Yes",
        "dbh": 42,
        "priority": "Medium",
        "land_use": "Single Family",
        "dbh_range": ">30in",
        "tree_maintenance_cycle": "3yr Cycle",
        "location_on_site": "West",
        "condition": "Fair",
        "land_type": "Street",
        "crown_spread": 75,
        "next_inspection": 45974,
        "tree_height__estimated_": 65,
        "objectid": 19,
        "status": "Alive",
        "heritage_tree_nomination": "No"
      }
    },
    {
      "geometry": {
        "type": "Point",
        "coordinates": [
          -81.46033877799994,
          30.665687262000063
        ],
        "crs": null
      },
      "id": 20,
      "type": "Feature",
      "properties": {
        "live_crown_ratio___lcr___": 65,
        "last_inspection": 44879,
        "tree_id": 21,
        "city": "Fernandina Beach",
        "assessed_tree_part": "Whole Tree",
        "number_of_stems__multi_calc_": "1",
        "canopy_shape": "Symmetrical",
        "latitude": 30.66568726,
        "height_range": "50ft-75ft",
        "likelihood_of_impacting_target": "Low",
        "likelihood_outcome": "Unlikely",
        "tree_work_phc": "",
        "risk_rating": "Low",
        "tree_work_pruning": "Clearance Prune, Crown Clean, Crown Reduce, Deadwood",
        "common_name": "Live oak",
        "observations_characteristics": "Co-dominant Limbs, Deadwood, Girdling Root, Included Bark, Poor Taper, Thin / Sparse Foliage",
        "longitude": -81.46033878,
        "observations_biotic_pest": "",
        "likelihood_of_failure": "Possible",
        "address": "402 South 7th Street",
        "observation_comments": "Tree is in close proximity to adjacent utilities. Co dominant stems with areas of included bark. Due to over pruning from utilities, lateral branches have become over extended with poor taper. Limited root space. Roots causing damage to sidewalk and curb",
        "observations_abiotic": " ",
        "heritage_tree_significance_note": "Tree meets DBH criteria. Tree certainly plays a significant role in the landscape. Would not recommend for Heritage Tree Program due to utility pruning and structural issues",
        "consequence_of_failure": "Significant",
        "scientific_name": "Quercus virginiana",
        "monitor": "No",
        "dbh": 38,
        "priority": "Low",
        "land_use": "Single Family",
        "dbh_range": ">30in",
        "tree_maintenance_cycle": "3yr Cycle",
        "location_on_site": "NW",
        "condition": "Fair",
        "land_type": "Street",
        "crown_spread": 65,
        "next_inspection": 45974,
        "tree_height__estimated_": 60,
        "objectid": 20,
        "status": "Alive",
        "heritage_tree_nomination": "No"
      }
    },
    {
      "geometry": {
        "type": "Point",
        "coordinates": [
          -81.46019706499999,
          30.667497424000032
        ],
        "crs": null
      },
      "id": 21,
      "type": "Feature",
      "properties": {
        "live_crown_ratio___lcr___": 75,
        "last_inspection": 44880,
        "tree_id": 22,
        "city": "Fernandina Beach",
        "assessed_tree_part": "Whole Tree",
        "number_of_stems__multi_calc_": "1",
        "canopy_shape": "Asymmetrical",
        "latitude": 30.66749742,
        "height_range": "50ft-75ft",
        "likelihood_of_impacting_target": "Low",
        "likelihood_outcome": "Unlikely",
        "tree_work_phc": "",
        "risk_rating": "Low",
        "tree_work_pruning": "Crown Clean, Crown Reduce, Deadwood",
        "common_name": "Live oak",
        "observations_characteristics": "Cavity, Co-dominant Limbs, Deadwood, Included Bark, Leaning trunk, Thin / Sparse Foliage, Vine growth",
        "longitude": -81.46019707,
        "observations_biotic_pest": "Spanish Moss",
        "likelihood_of_failure": "Possible",
        "address": "223 South 7th Street",
        "observation_comments": "Tree has a trunk lean over the roadway. Cavity at union of 2 co dominant stems that is of a concern. ",
        "observations_abiotic": " ",
        "heritage_tree_significance_note": "Tree meet DBH criteria. Overall health is fair. Would not recommend for Heritage Tree Program due to cavity.",
        "consequence_of_failure": "Significant",
        "scientific_name": "Quercus virginiana",
        "monitor": "Yes",
        "dbh": 44,
        "priority": "Low",
        "land_use": "Single Family",
        "dbh_range": ">30in",
        "tree_maintenance_cycle": "3yr Cycle",
        "location_on_site": "NE",
        "condition": "Fair",
        "land_type": "Street",
        "crown_spread": 60,
        "next_inspection": 45975,
        "tree_height__estimated_": 65,
        "objectid": 21,
        "status": "Alive",
        "heritage_tree_nomination": "No"
      }
    },
    {
      "geometry": {
        "type": "Point",
        "coordinates": [
          -81.45928958499996,
          30.674550171000078
        ],
        "crs": null
      },
      "id": 22,
      "type": "Feature",
      "properties": {
        "live_crown_ratio___lcr___": 50,
        "last_inspection": 44879,
        "tree_id": 23,
        "city": "Fernandina Beach",
        "assessed_tree_part": "Whole Tree",
        "number_of_stems__multi_calc_": "1",
        "canopy_shape": "Symmetrical",
        "latitude": 30.67455017,
        "height_range": "30ft-50ft",
        "likelihood_of_impacting_target": "Very Low",
        "likelihood_outcome": "Unlikely",
        "tree_work_phc": "",
        "risk_rating": "Low",
        "tree_work_pruning": "Crown Clean, Deadwood, Reduce end weight",
        "common_name": "Live oak",
        "observations_characteristics": "Cavity, Co-dominant Limbs, Deadwood, Gall, Leaning trunk, Thin / Sparse Foliage, Vine growth",
        "longitude": -81.45928958,
        "observations_biotic_pest": "Fungus",
        "likelihood_of_failure": "Possible",
        "address": "614 Calhoun Street",
        "observation_comments": "Significant amount of deadwood present in the canopy. Tree is extensive vine growth in canopy. A large basal cavity is present which is of concern. Tree is on edge of roadway in natural area",
        "observations_abiotic": " ",
        "heritage_tree_significance_note": "Tree meets dbh criteria. Due to tree's overall health and structural issues.  Would not recommend for Heritage Tree Program.",
        "consequence_of_failure": "Significant",
        "scientific_name": "Quercus virginiana",
        "monitor": "No",
        "dbh": 53,
        "priority": "Low",
        "land_use": "Park/ Vacant/ Other",
        "dbh_range": ">30in",
        "tree_maintenance_cycle": "3yr Cycle",
        "location_on_site": "North",
        "condition": "Fair",
        "land_type": "Empty Lot",
        "crown_spread": 75,
        "next_inspection": 45974,
        "tree_height__estimated_": 45,
        "objectid": 22,
        "status": "Alive",
        "heritage_tree_nomination": "No"
      }
    },
    {
      "geometry": {
        "type": "Point",
        "coordinates": [
          -81.46080056699998,
          30.673509053000032
        ],
        "crs": null
      },
      "id": 23,
      "type": "Feature",
      "properties": {
        "live_crown_ratio___lcr___": 65,
        "last_inspection": 44879,
        "tree_id": 24,
        "city": "Fernandina Beach",
        "assessed_tree_part": "Whole Tree",
        "number_of_stems__multi_calc_": "1",
        "canopy_shape": "Symmetrical",
        "latitude": 30.67350905,
        "height_range": "50ft-75ft",
        "likelihood_of_impacting_target": "Medium",
        "likelihood_outcome": "Somewhat Likely",
        "tree_work_phc": "",
        "risk_rating": "Moderate",
        "tree_work_pruning": "Crown Clean, Crown Reduce, Deadwood",
        "common_name": "Laurel oak",
        "observations_characteristics": "Cavity, Co-dominant Limbs, Deadwood, Included Bark, Poor Taper",
        "longitude": -81.46080057,
        "observations_biotic_pest": "Fungus",
        "likelihood_of_failure": "Probable",
        "address": "502 Broome Street",
        "observation_comments": "Limited root space. Roots causing damage to sidewalk and curb. Heartwood decay suspected. Bacterial wet wood and fungi present on trunk cavities. ",
        "observations_abiotic": " ",
        "heritage_tree_significance_note": "Tree meets overall DBH criteria. Overall tree health does not warrant nomination for Heritage Tree Program.",
        "consequence_of_failure": "Significant",
        "scientific_name": "Quercus laurifolia",
        "monitor": "No",
        "dbh": 39,
        "priority": "Low",
        "land_use": "Single Family",
        "dbh_range": ">30in",
        "tree_maintenance_cycle": "3yr Cycle",
        "location_on_site": "NW",
        "condition": "Fair",
        "land_type": "Street",
        "crown_spread": 60,
        "next_inspection": 45974,
        "tree_height__estimated_": 55,
        "objectid": 23,
        "status": "Alive",
        "heritage_tree_nomination": "No"
      }
    },
    {
      "geometry": {
        "type": "Point",
        "coordinates": [
          -81.46113484799997,
          30.672494334000078
        ],
        "crs": null
      },
      "id": 24,
      "type": "Feature",
      "properties": {
        "live_crown_ratio___lcr___": 85,
        "last_inspection": 44879,
        "tree_id": 25,
        "city": "Fernandina Beach",
        "assessed_tree_part": "Whole Tree",
        "number_of_stems__multi_calc_": "1",
        "canopy_shape": "Symmetrical",
        "latitude": 30.67249433,
        "height_range": "30ft-50ft",
        "likelihood_of_impacting_target": "Low",
        "likelihood_outcome": "Unlikely",
        "tree_work_phc": "",
        "risk_rating": "Low",
        "tree_work_pruning": "Clearance Prune, Crown Clean, Deadwood, Reduce end weight",
        "common_name": "Live oak",
        "observations_characteristics": "Co-dominant Limbs, Deadwood, Included Bark",
        "longitude": -81.46113485,
        "observations_biotic_pest": "",
        "likelihood_of_failure": "Possible",
        "address": "105 N 5th St",
        "observation_comments": "Limited root space. Tree roots causing damage to sidewalk and curb. Tree has good structure and shape.",
        "observations_abiotic": " ",
        "heritage_tree_significance_note": "Tree does not meet DBH criteria. Overall a good specimen with good health. Worth continuing to monitor and possible nomination in the future.",
        "consequence_of_failure": "Significant",
        "scientific_name": "Quercus virginiana",
        "monitor": "No",
        "dbh": 21,
        "priority": "Low",
        "land_use": "Single Family",
        "dbh_range": "18-24in",
        "tree_maintenance_cycle": "3yr Cycle",
        "location_on_site": "SE",
        "condition": "Excellent",
        "land_type": "Street",
        "crown_spread": 50,
        "next_inspection": 45974,
        "tree_height__estimated_": 35,
        "objectid": 24,
        "status": "Alive",
        "heritage_tree_nomination": "No"
      }
    }
  ]
}