{
  "type": "FeatureCollection",
  "features": [
    {
      "type": "Feature",
      "id": 2,
      "geometry": {
        "type": "Polygon",
        "coordinates": [
          [
            [
              -81.4531013523309,
              30.5726564236936
            ],
            [
              -81.4463723591002,
              30.5732225105759
            ],
            [
              -81.4460538874673,
              30.5696578778865
            ],
            [
              -81.4467011038666,
              30.5696755684568
            ],
            [
              -81.4465675513333,
              30.5691536883159
            ],
            [
              -81.4465264579006,
              30.5685787323022
            ],
            [
              -81.443362289636,
              30.5687821782494
            ],
            [
              -81.4429160443321,
              30.5608126210658
            ],
            [
              -81.4428357843531,
              30.5585181073842
            ],
            [
              -81.4407169218042,
              30.5455102313635
            ],
            [
              -81.4402674659215,
              30.5430079849212
            ],
            [
              -81.4390957223295,
              30.5387269464679
            ],
            [
              -81.4400908939675,
              30.5385424908426
            ],
            [
              -81.4400440225709,
              30.5382604522877
            ],
            [
              -81.4397210728364,
              30.5382981892127
            ],
            [
              -81.4395735766533,
              30.5372266688497
            ],
            [
              -81.4393190102714,
              30.5364047947664
            ],
            [
              -81.4411432631363,
              30.5361987841307
            ],
            [
              -81.4417904786373,
              30.5360129665851
            ],
            [
              -81.4408279365053,
              30.533455845716
            ],
            [
              -81.4402597610713,
              30.5311550338302
            ],
            [
              -81.4410713494046,
              30.5309249617926
            ],
            [
              -81.4413692747703,
              30.5291817054218
            ],
            [
              -81.4446669955682,
              30.5279251258598
            ],
            [
              -81.4450960093883,
              30.5279902884383
            ],
            [
              -81.4454364232703,
              30.5281127587139
            ],
            [
              -81.4456810273356,
              30.5282339760692
            ],
            [
              -81.4454257405049,
              30.5283924790587
            ],
            [
              -81.4456635074926,
              30.528493238665
            ],
            [
              -81.4459643029756,
              30.5284451902988
            ],
            [
              -81.4459671200923,
              30.5281064020219
            ],
            [
              -81.4471356081897,
              30.5280870054036
            ],
            [
              -81.4483290173497,
              30.527864619149
            ],
            [
              -81.4482963590976,
              30.5273494698557
            ],
            [
              -81.448840907043,
              30.5274991096847
            ],
            [
              -81.449011934595,
              30.5267888121298
            ],
            [
              -81.4498549980993,
              30.5275092123613
            ],
            [
              -81.451683641031,
              30.5292082523424
            ],
            [
              -81.4524341484166,
              30.5298034003942
            ],
            [
              -81.4541800466291,
              30.530482513797
            ],
            [
              -81.4535122839627,
              30.5316151762707
            ],
            [
              -81.4519610192312,
              30.5316505712766
            ],
            [
              -81.4515911819304,
              30.532544303282
            ],
            [
              -81.4508823258312,
              30.5325620006173
            ],
            [
              -81.4510364246317,
              30.5335884544759
            ],
            [
              -81.4485502930655,
              30.5333672367954
            ],
            [
              -81.4477592509993,
              30.5349953867923
            ],
            [
              -81.447677064134,
              30.5366412060906
            ],
            [
              -81.447964716366,
              30.5383489352721
            ],
            [
              -81.4473725972364,
              30.5401099149662
            ],
            [
              -81.4468949486268,
              30.5407086263821
            ],
            [
              -81.4462093939278,
              30.5403964371169
            ],
            [
              -81.4462361152143,
              30.5390509261556
            ],
            [
              -81.4457969531264,
              30.539002847421
            ],
            [
              -81.445814853855,
              30.5385719698778
            ],
            [
              -81.4444815626322,
              30.5387976554608
            ],
            [
              -81.4446722273564,
              30.5399311385804
            ],
            [
              -81.4449734800818,
              30.5404758899395
            ],
            [
              -81.4452641847892,
              30.5417327411849
            ],
            [
              -81.4463084125266,
              30.541308155761
            ],
            [
              -81.4466139493177,
              30.5413281640458
            ],
            [
              -81.4463837236868,
              30.5422062924294
            ],
            [
              -81.4479030766662,
              30.5430030086615
            ],
            [
              -81.4484372867993,
              30.5434277034988
            ],
            [
              -81.4499651234683,
              30.5437317455957
            ],
            [
              -81.4505186491767,
              30.5439205409088
            ],
            [
              -81.4507910066927,
              30.544256303167
            ],
            [
              -81.4509092025262,
              30.5443393735677
            ],
            [
              -81.4510835888791,
              30.5442601335687
            ],
            [
              -81.4521567279956,
              30.5449409090584
            ],
            [
              -81.4526830401408,
              30.5447558617827
            ],
            [
              -81.4530995539037,
              30.5448126103735
            ],
            [
              -81.4535212805903,
              30.5448836267191
            ],
            [
              -81.4539350886276,
              30.545039845012
            ],
            [
              -81.4541322005605,
              30.5452098843947
            ],
            [
              -81.4542976639476,
              30.545157884731
            ],
            [
              -81.454606187637,
              30.5454054114841
            ],
            [
              -81.4547506529044,
              30.5454560903901
            ],
            [
              -81.4550679270829,
              30.5457422710594
            ],
            [
              -81.4547623570542,
              30.5456476806466
            ],
            [
              -81.4546649635077,
              30.5455370182955
            ],
            [
              -81.4545369481898,
              30.5454886766357
            ],
            [
              -81.4543787360037,
              30.5455912551566
            ],
            [
              -81.4541255647055,
              30.545639577424
            ],
            [
              -81.4539585184868,
              30.5456052218881
            ],
            [
              -81.4538653263609,
              30.5455461118011
            ],
            [
              -81.4534658329777,
              30.5455150929942
            ],
            [
              -81.4530658419277,
              30.5454982544523
            ],
            [
              -81.4527688103858,
              30.545415639951
            ],
            [
              -81.4528958869642,
              30.5455334564014
            ],
            [
              -81.452834397283,
              30.5457153286803
            ],
            [
              -81.4522102666882,
              30.54550612327
            ],
            [
              -81.4517832111954,
              30.5453794175104
            ],
            [
              -81.4514866719302,
              30.5453818645758
            ],
            [
              -81.4512101848588,
              30.5452079688258
            ],
            [
              -81.4507065120554,
              30.5447565248079
            ],
            [
              -81.4500707374979,
              30.5444363473567
            ],
            [
              -81.4492140806868,
              30.544089330464
            ],
            [
              -81.4481393614337,
              30.5437196802671
            ],
            [
              -81.4475640587662,
              30.54384354884
            ],
            [
              -81.4474741760338,
              30.5439061809131
            ],
            [
              -81.4474407793665,
              30.5440824386687
            ],
            [
              -81.4476827765209,
              30.5442272428614
            ],
            [
              -81.4482112742671,
              30.5442505455724
            ],
            [
              -81.4484893818993,
              30.544759607836
            ],
            [
              -81.4485688154283,
              30.5448957483801
            ],
            [
              -81.4487086822197,
              30.5450053639315
            ],
            [
              -81.4487657665628,
              30.5451479417157
            ],
            [
              -81.4489215506027,
              30.5452898957253
            ],
            [
              -81.4490118995607,
              30.545505676099
            ],
            [
              -81.4491340156421,
              30.5458468886526
            ],
            [
              -81.4490998751698,
              30.5461246663601
            ],
            [
              -81.4489369414385,
              30.5460578858709
            ],
            [
              -81.4488851508674,
              30.5458111591879
            ],
            [
              -81.4486378509579,
              30.5454382429946
            ],
            [
              -81.4483037342661,
              30.5454095899843
            ],
            [
              -81.4465778244669,
              30.5454803707029
            ],
            [
              -81.4460538874673,
              30.5457192557308
            ],
            [
              -81.4466908298347,
              30.5464712984399
            ],
            [
              -81.4491050494658,
              30.547099470289
            ],
            [
              -81.4505946744975,
              30.5481169224798
            ],
            [
              -81.4535020108291,
              30.5485858325404
            ],
            [
              -81.4540567672294,
              30.5483381065631
            ],
            [
              -81.4561422411958,
              30.5481788547547
            ],
            [
              -81.4569285266825,
              30.5484216515742
            ],
            [
              -81.4578522678825,
              30.5482381914598
            ],
            [
              -81.458926299026,
              30.5484000379233
            ],
            [
              -81.4593885963258,
              30.5490901289864
            ],
            [
              -81.4601385449592,
              30.5491520598669
            ],
            [
              -81.4607754882249,
              30.549709436013
            ],
            [
              -81.4602618243589,
              30.5501075603144
            ],
            [
              -81.4602515512254,
              30.5506206958772
            ],
            [
              -81.4595632413934,
              30.5508064862443
            ],
            [
              -81.4593269566259,
              30.5512399939129
            ],
            [
              -81.4584023620265,
              30.5514080884233
            ],
            [
              -81.4581131952348,
              30.5515670920226
            ],
            [
              -81.4580769212637,
              30.5516617795572
            ],
            [
              -81.4582720811574,
              30.5522446298227
            ],
            [
              -81.4581607870803,
              30.5528849476389
            ],
            [
              -81.4579136174265,
              30.5525774027414
            ],
            [
              -81.457552491089,
              30.5524154580332
            ],
            [
              -81.4571048884307,
              30.5523720321432
            ],
            [
              -81.4569389651061,
              30.5526144688099
            ],
            [
              -81.4571695707244,
              30.5527961313304
            ],
            [
              -81.4570108617699,
              30.5529072410534
            ],
            [
              -81.4566463344108,
              30.5528343337249
            ],
            [
              -81.4559865335127,
              30.5526470596152
            ],
            [
              -81.4556285782282,
              30.5527174459389
            ],
            [
              -81.4552601719436,
              30.5532735917177
            ],
            [
              -81.4545712081381,
              30.553185316505
            ],
            [
              -81.4545730308199,
              30.5535693859287
            ],
            [
              -81.4542848890059,
              30.5535840639869
            ],
            [
              -81.4534620295107,
              30.5530837393001
            ],
            [
              -81.4528698870249,
              30.5533159844616
            ],
            [
              -81.4514597036071,
              30.5533623371927
            ],
            [
              -81.450975178394,
              30.5534785063117
            ],
            [
              -81.4509930845125,
              30.5537249876209
            ],
            [
              -81.4530640650601,
              30.5547937986398
            ],
            [
              -81.4535206014639,
              30.5549710825044
            ],
            [
              -81.4540506541939,
              30.5555692899652
            ],
            [
              -81.4555669385283,
              30.5563888613788
            ],
            [
              -81.4577756918944,
              30.5568223441153
            ],
            [
              -81.4582438435148,
              30.5568228647226
            ],
            [
              -81.4591831300607,
              30.5565834864099
            ],
            [
              -81.4600962001734,
              30.5568963043596
            ],
            [
              -81.4611532298019,
              30.5569387109924
            ],
            [
              -81.4616400151763,
              30.5572858908147
            ],
            [
              -81.4622836958066,
              30.5573735550551
            ],
            [
              -81.4630561544245,
              30.5576362262755
            ],
            [
              -81.4635846961882,
              30.5581668050736
            ],
            [
              -81.4638739492181,
              30.5584649212631
            ],
            [
              -81.4638872379961,
              30.5588014616847
            ],
            [
              -81.463690766562,
              30.5593640865969
            ],
            [
              -81.4632205263585,
              30.5597151316259
            ],
            [
              -81.4627539072639,
              30.5599752121213
            ],
            [
              -81.4625249617323,
              30.5596654711802
            ],
            [
              -81.4624416115487,
              30.5595065837289
            ],
            [
              -81.4622982413276,
              30.5594943911796
            ],
            [
              -81.4624911239922,
              30.5599805209054
            ],
            [
              -81.4621713183612,
              30.5600671887175
            ],
            [
              -81.4617617216259,
              30.5603962953393
            ],
            [
              -81.4614843434258,
              30.5601662925824
            ],
            [
              -81.4599228064589,
              30.5602724478877
            ],
            [
              -81.4586694670931,
              30.5599362892803
            ],
            [
              -81.4582996208091,
              30.5600964044032
            ],
            [
              -81.4580734411903,
              30.5604339478541
            ],
            [
              -81.4580193482371,
              30.5606050091806
            ],
            [
              -81.458131137286,
              30.5607705479705
            ],
            [
              -81.4586694670931,
              30.5615551469712
            ],
            [
              -81.4584742748599,
              30.5618824539758
            ],
            [
              -81.4586547580786,
              30.5621530175886
            ],
            [
              -81.4587002864938,
              30.562457449676
            ],
            [
              -81.4588355772672,
              30.5625551471674
            ],
            [
              -81.4588468241746,
              30.5627487968054
            ],
            [
              -81.4587010779096,
              30.5630104386269
            ],
            [
              -81.4584621565867,
              30.5630486215304
            ],
            [
              -81.4584742748599,
              30.564085111872
            ],
            [
              -81.4588338390271,
              30.5646070192807
            ],
            [
              -81.4593269566259,
              30.5651200781826
            ],
            [
              -81.4597789798937,
              30.5652881486522
            ],
            [
              -81.4597255507956,
              30.5654380456044
            ],
            [
              -81.4596613212528,
              30.565504304575
            ],
            [
              -81.4595249911286,
              30.5655418522331
            ],
            [
              -81.45949132856,
              30.5657039003424
            ],
            [
              -81.45946976001,
              30.5661112277399
            ],
            [
              -81.4596258970878,
              30.5667558954018
            ],
            [
              -81.45916931487,
              30.5667900338375
            ],
            [
              -81.4591420375264,
              30.5668184608673
            ],
            [
              -81.4590054810268,
              30.5669111085464
            ],
            [
              -81.4589571184268,
              30.5672430515059
            ],
            [
              -81.459268006482,
              30.5675235207833
            ],
            [
              -81.4595632413934,
              30.5676764865267
            ],
            [
              -81.4599553721846,
              30.567757982199
            ],
            [
              -81.4603234640588,
              30.5676587955918
            ],
            [
              -81.4603015307928,
              30.5679028941641
            ],
            [
              -81.4601151968467,
              30.5681482165281
            ],
            [
              -81.4602601552891,
              30.5682561343488
            ],
            [
              -81.4598401893006,
              30.5686546621161
            ],
            [
              -81.459234496627,
              30.569286369751
            ],
            [
              -81.4590803978265,
              30.5701089926086
            ],
            [
              -81.4546012504962,
              30.5703743526838
            ],
            [
              -81.4540978606621,
              30.5703743526838
            ],
            [
              -81.4539643072305,
              30.5717276805592
            ],
            [
              -81.4530602597966,
              30.5718161330378
            ],
            [
              -81.4531013523309,
              30.5726564236936
            ]
          ]
        ]
      },
      "properties": {
        "FID": 2,
        "Name": "Polygon 1",
        "Shape__Area": 7759489.7265625,
        "Shape__Length": 24057.517859780484,
        "GlobalID": "9d266732-e916-4564-9fcb-b1e29fe81144",
        "CreationDate": 1720532331872,
        "Creator": "AIPCA5",
        "EditDate": 1720532331872,
        "Editor": "AIPCA5"
      }
    }
  ]
}